GLOBALSTAR M075 [+]     
1 37192U 10054E   23239.39291017 -.00000090  00000+0  75099-4 0  9996
2 37192  51.9964  30.4644 0000563  87.8493 289.5116 12.62260554592687
GLOBALSTAR M073 [+]     
1 37193U 10054F   23239.66289677 -.00000067  00000+0  20745-3 0  9997
2 37193  52.0065 302.9637 0000481 112.1916  52.1886 12.62266845594591
GLOBALSTAR M083 [+]     
1 37739U 11033A   23239.43358809 -.00000104  00000+0 -17197-5 0  9992
2 37739  51.9839 253.2916 0000352 149.8379 352.9626 12.62268713563538
GLOBALSTAR M088 [+]     
1 37740U 11033B   23239.25281212 -.00000114  00000+0 -57919-4 0  9993
2 37740  51.9729 159.8881 0000204  37.1594 123.4954 12.62264884559056
GLOBALSTAR M091 [+]     
1 37741U 11033C   23239.19068399 -.00000104  00000+0  80294-6 0  9998
2 37741  51.9990 122.4526 0000320  60.1027 117.5160 12.62265792559833
GLOBALSTAR M085 [+]     
1 37742U 11033D   23239.01613462 -.00000106  00000+0 -10891-4 0  9994
2 37742  51.9864  74.6048 0000575  84.7534  80.1602 12.62266490560326
GLOBALSTAR M081 [+]     
1 37743U 11033E   23239.33527097 -.00000093  00000+0  59598-4 0  9999
2 37743  51.9954  76.0136 0000505  60.2940 354.9970 12.62270464560511
GLOBALSTAR M089 [+]     
1 37744U 11033F   23239.21680802 -.00000106  00000+0 -14458-4 0  9993
2 37744  51.9946  30.7257 0000869  74.4173 342.1159 12.62266259561349
